<?xml version="1.0" ?>
<kml xmlns:gx="http://www.google.com/kml/ext/2.2">
    <Document>
        <name>inspection_mission - Litchi KML</name>
        <Style id="poi-marker-style">
            <IconStyle>
                <color>ff984b00</color>
                <Icon>
                    <href>http://maps.google.com/mapfiles/kml/paddle/wht-blank.png</href>
                </Icon>
            </IconStyle>
            <BalloonStyle>
                <text>$[description]</text>
            </BalloonStyle>
        </Style>
        <Style id="wp-marker-style">
            <IconStyle>
                <color>ffff0076</color>
                <Icon>
                    <href>http://maps.google.com/mapfiles/kml/paddle/wht-blank.png</href>
                </Icon>
            </IconStyle>
            <BalloonStyle>
                <text>$[description]</text>
            </BalloonStyle>
        </Style>
        <StyleMap id="wpline-style">
            <Pair>
                <key>normal</key>
                <styleUrl>#wpline-style-normal</styleUrl>
            </Pair>
            <Pair>
                <key>highlight</key>
                <styleUrl>#wpline-style-highlight</styleUrl>
            </Pair>
        </StyleMap>
        <Style id="wpline-style-normal">
            <LineStyle>
                <color>ff00ffff</color>
                <width>3</width>
            </LineStyle>
            <PolyStyle>
                <color>5000ffff</color>
                <outline>0</outline>
            </PolyStyle>
        </Style>
        <Style id="wpline-style-highlight">
            <LineStyle>
                <color>ff00ffff</color>
                <width>3</width>
            </LineStyle>
            <PolyStyle>
                <color>5000ffff</color>
            </PolyStyle>
        </Style>
        <LookAt>
            <gx:horizFov>69.72645906888525</gx:horizFov>
            <latitude>52.2255140120</latitude>
            <longitude>6.6932001347</longitude>
            <altitude>27.223888</altitude>
            <altitudeMode>absolute</altitudeMode>
            <heading>0</heading>
            <tilt>67.5</tilt>
            <range>50</range>
        </LookAt>
        <Folder>
            <name>Waypoints</name>
            <Placemark>
                <name>WP 1</name>
                <styleUrl>#wp-marker-style</styleUrl>
                <Point>
                    <extrude>1</extrude>
                    <altitudeMode>absolute</altitudeMode>
                    <coordinates>6.693249870812478,52.22556040949573,1.700000000000013</coordinates>
                </Point>
                <description>&lt;h3&gt;WP 1&lt;/h3&gt;52.225560, 6.693250&lt;br&gt;ALT 1.7m&lt;br&gt;Heading 213.1°&lt;br&gt;Gimbal Pitch -0.0°</description>
                <Camera>
                    <gx:horizFov>69.72645906888525</gx:horizFov>
                    <latitude>52.2255604095</latitude>
                    <longitude>6.6932498708</longitude>
                    <altitude>1.700000</altitude>
                    <altitudeMode>absolute</altitudeMode>
                    <heading>213.141228</heading>
                    <tilt>90.000000</tilt>
                </Camera>
            </Placemark>
            <Placemark>
                <name>WP 2</name>
                <styleUrl>#wp-marker-style</styleUrl>
                <Point>
                    <extrude>1</extrude>
                    <altitudeMode>absolute</altitudeMode>
                    <coordinates>6.693149718682161,52.22549408267152,1.699999999999997</coordinates>
                </Point>
                <description>&lt;h3&gt;WP 2&lt;/h3&gt;52.225494, 6.693150&lt;br&gt;ALT 1.7m&lt;br&gt;Heading 45.9°&lt;br&gt;Gimbal Pitch 0.0°</description>
                <Camera>
                    <gx:horizFov>69.72645906888525</gx:horizFov>
                    <latitude>52.2254940827</latitude>
                    <longitude>6.6931497187</longitude>
                    <altitude>1.700000</altitude>
                    <altitudeMode>absolute</altitudeMode>
                    <heading>45.883981</heading>
                    <tilt>90.000000</tilt>
                </Camera>
            </Placemark>
            <Placemark>
                <name>WP 3</name>
                <styleUrl>#wp-marker-style</styleUrl>
                <Point>
                    <extrude>1</extrude>
                    <altitudeMode>absolute</altitudeMode>
                    <coordinates>6.693191022310978,52.225478862370494,1.699999999999997</coordinates>
                </Point>
                <description>&lt;h3&gt;WP 3&lt;/h3&gt;52.225479, 6.693191&lt;br&gt;ALT 1.7m&lt;br&gt;Heading 17.9°&lt;br&gt;Gimbal Pitch 0.0°</description>
                <Camera>
                    <gx:horizFov>69.72645906888525</gx:horizFov>
                    <latitude>52.2254788624</latitude>
                    <longitude>6.6931910223</longitude>
                    <altitude>1.700000</altitude>
                    <altitudeMode>absolute</altitudeMode>
                    <heading>17.866799</heading>
                    <tilt>90.000000</tilt>
                </Camera>
            </Placemark>
            <Placemark>
                <name>WP 4</name>
                <styleUrl>#wp-marker-style</styleUrl>
                <Point>
                    <extrude>1</extrude>
                    <altitudeMode>absolute</altitudeMode>
                    <coordinates>6.693209926982438,52.225522693574455,7.223887558901076</coordinates>
                </Point>
                <description>&lt;h3&gt;WP 4&lt;/h3&gt;52.225523, 6.693210&lt;br&gt;ALT 7.2m&lt;br&gt;Heading 210.0°&lt;br&gt;Gimbal Pitch -90.0°</description>
                <Camera>
                    <gx:horizFov>69.72645906888525</gx:horizFov>
                    <latitude>52.2255226936</latitude>
                    <longitude>6.6932099270</longitude>
                    <altitude>7.223888</altitude>
                    <altitudeMode>absolute</altitudeMode>
                    <heading>210.000000</heading>
                    <tilt>179.964457</tilt>
                </Camera>
            </Placemark>
        </Folder>
        <Folder>
            <name>POIs</name>
        </Folder>
        <Placemark>
            <name>Waypoint Path</name>
            <styleUrl>#wpline-style</styleUrl>
            <LineString>
                <extrude>1</extrude>
                <tessellate>1</tessellate>
                <altitudeMode>absolute</altitudeMode>
                <coordinates>6.693249870812478,52.22556040949573,1.700000000000013 6.693149718682161,52.22549408267152,1.699999999999997 6.693191022310978,52.225478862370494,1.699999999999997 6.693209926982438,52.225522693574455,7.223887558901076</coordinates>
            </LineString>
        </Placemark>
        <gx:Tour>
            <name>Simulation</name>
            <gx:Playlist>
                <gx:FlyTo>
                    <gx:flyToMode>bounce</gx:flyToMode>
                    <gx:duration>0.05</gx:duration>
                    <Camera>
                        <gx:horizFov>69.72645906888525</gx:horizFov>
                        <latitude>52.2255604095</latitude>
                        <longitude>6.6932498708</longitude>
                        <altitude>1.700000</altitude>
                        <altitudeMode>absolute</altitudeMode>
                        <heading>213.141228</heading>
                        <tilt>90.000000</tilt>
                    </Camera>
                </gx:FlyTo>
                <gx:FlyTo>
                    <gx:flyToMode>bounce</gx:flyToMode>
                    <gx:duration>0.5</gx:duration>
                    <Camera>
                        <gx:horizFov>69.72645906888525</gx:horizFov>
                        <latitude>52.2255604095</latitude>
                        <longitude>6.6932498708</longitude>
                        <altitude>1.700000</altitude>
                        <altitudeMode>absolute</altitudeMode>
                        <heading>213.141228</heading>
                        <tilt>90.000000</tilt>
                    </Camera>
                </gx:FlyTo>
                <gx:Wait>
                    <gx:duration>0.1</gx:duration>
                </gx:Wait>
                <gx:FlyTo>
                    <gx:flyToMode>bounce</gx:flyToMode>
                    <gx:duration>2.0</gx:duration>
                    <Camera>
                        <gx:horizFov>69.72645906888525</gx:horizFov>
                        <latitude>52.2255604095</latitude>
                        <longitude>6.6932498708</longitude>
                        <altitude>1.700000</altitude>
                        <altitudeMode>absolute</altitudeMode>
                        <heading>213.141228</heading>
                        <tilt>90.000000</tilt>
                    </Camera>
                </gx:FlyTo>
                <gx:Wait>
                    <gx:duration>0.1</gx:duration>
                </gx:Wait>
                <gx:FlyTo>
                    <gx:flyToMode>smooth</gx:flyToMode>
                    <gx:duration>0.05</gx:duration>
                    <Camera>
                        <gx:horizFov>69.72645906888525</gx:horizFov>
                        <latitude>52.2255587513</latitude>
                        <longitude>6.6932473670</longitude>
                        <altitude>1.700000</altitude>
                        <altitudeMode>absolute</altitudeMode>
                        <heading>208.959797</heading>
                        <tilt>90.000000</tilt>
                    </Camera>
                </gx:FlyTo>
                <gx:FlyTo>
                    <gx:flyToMode>smooth</gx:flyToMode>
                    <gx:duration>0.05</gx:duration>
                    <Camera>
                        <gx:horizFov>69.72645906888525</gx:horizFov>
                        <latitude>52.2255570932</latitude>
                        <longitude>6.6932448632</longitude>
                        <altitude>1.700000</altitude>
                        <altitudeMode>absolute</altitudeMode>
                        <heading>204.778365</heading>
                        <tilt>90.000000</tilt>
                    </Camera>
                </gx:FlyTo>
                <gx:FlyTo>
                    <gx:flyToMode>smooth</gx:flyToMode>
                    <gx:duration>0.05</gx:duration>
                    <Camera>
                        <gx:horizFov>69.72645906888525</gx:horizFov>
                        <latitude>52.2255554350</latitude>
                        <longitude>6.6932423594</longitude>
                        <altitude>1.700000</altitude>
                        <altitudeMode>absolute</altitudeMode>
                        <heading>200.596934</heading>
                        <tilt>90.000000</tilt>
                    </Camera>
                </gx:FlyTo>
                <gx:FlyTo>
                    <gx:flyToMode>smooth</gx:flyToMode>
                    <gx:duration>0.05</gx:duration>
                    <Camera>
                        <gx:horizFov>69.72645906888525</gx:horizFov>
                        <latitude>52.2255537768</latitude>
                        <longitude>6.6932398556</longitude>
                        <altitude>1.700000</altitude>
                        <altitudeMode>absolute</altitudeMode>
                        <heading>196.415503</heading>
                        <tilt>90.000000</tilt>
                    </Camera>
                </gx:FlyTo>
                <gx:FlyTo>
                    <gx:flyToMode>smooth</gx:flyToMode>
                    <gx:duration>0.05</gx:duration>
                    <Camera>
                        <gx:horizFov>69.72645906888525</gx:horizFov>
                        <latitude>52.2255521186</latitude>
                        <longitude>6.6932373518</longitude>
                        <altitude>1.700000</altitude>
                        <altitudeMode>absolute</altitudeMode>
                        <heading>192.234072</heading>
                        <tilt>90.000000</tilt>
                    </Camera>
                </gx:FlyTo>
                <gx:FlyTo>
                    <gx:flyToMode>smooth</gx:flyToMode>
                    <gx:duration>0.05</gx:duration>
                    <Camera>
                        <gx:horizFov>69.72645906888525</gx:horizFov>
                        <latitude>52.2255504605</latitude>
                        <longitude>6.6932348480</longitude>
                        <altitude>1.700000</altitude>
                        <altitudeMode>absolute</altitudeMode>
                        <heading>188.052641</heading>
                        <tilt>90.000000</tilt>
                    </Camera>
                </gx:FlyTo>
                <gx:FlyTo>
                    <gx:flyToMode>smooth</gx:flyToMode>
                    <gx:duration>0.05</gx:duration>
                    <Camera>
                        <gx:horizFov>69.72645906888525</gx:horizFov>
                        <latitude>52.2255488023</latitude>
                        <longitude>6.6932323442</longitude>
                        <altitude>1.700000</altitude>
                        <altitudeMode>absolute</altitudeMode>
                        <heading>183.871210</heading>
                        <tilt>90.000000</tilt>
                    </Camera>
                </gx:FlyTo>
                <gx:FlyTo>
                    <gx:flyToMode>smooth</gx:flyToMode>
                    <gx:duration>0.05</gx:duration>
                    <Camera>
                        <gx:horizFov>69.72645906888525</gx:horizFov>
                        <latitude>52.2255471441</latitude>
                        <longitude>6.6932298404</longitude>
                        <altitude>1.700000</altitude>
                        <altitudeMode>absolute</altitudeMode>
                        <heading>179.689778</heading>
                        <tilt>90.000000</tilt>
                    </Camera>
                </gx:FlyTo>
                <gx:FlyTo>
                    <gx:flyToMode>smooth</gx:flyToMode>
                    <gx:duration>0.05</gx:duration>
                    <Camera>
                        <gx:horizFov>69.72645906888525</gx:horizFov>
                        <latitude>52.2255454860</latitude>
                        <longitude>6.6932273366</longitude>
                        <altitude>1.700000</altitude>
                        <altitudeMode>absolute</altitudeMode>
                        <heading>175.508347</heading>
                        <tilt>90.000000</tilt>
                    </Camera>
                </gx:FlyTo>
                <gx:FlyTo>
                    <gx:flyToMode>smooth</gx:flyToMode>
                    <gx:duration>0.05</gx:duration>
                    <Camera>
                        <gx:horizFov>69.72645906888525</gx:horizFov>
                        <latitude>52.2255438278</latitude>
                        <longitude>6.6932248328</longitude>
                        <altitude>1.700000</altitude>
                        <altitudeMode>absolute</altitudeMode>
                        <heading>171.326916</heading>
                        <tilt>90.000000</tilt>
                    </Camera>
                </gx:FlyTo>
                <gx:FlyTo>
                    <gx:flyToMode>smooth</gx:flyToMode>
                    <gx:duration>0.05</gx:duration>
                    <Camera>
                        <gx:horizFov>69.72645906888525</gx:horizFov>
                        <latitude>52.2255421696</latitude>
                        <longitude>6.6932223290</longitude>
                        <altitude>1.700000</altitude>
                        <altitudeMode>absolute</altitudeMode>
                        <heading>167.145485</heading>
                        <tilt>90.000000</tilt>
                    </Camera>
                </gx:FlyTo>
                <gx:FlyTo>
                    <gx:flyToMode>smooth</gx:flyToMode>
                    <gx:duration>0.05</gx:duration>
                    <Camera>
                        <gx:horizFov>69.72645906888525</gx:horizFov>
                        <latitude>52.2255405114</latitude>
                        <longitude>6.6932198252</longitude>
                        <altitude>1.700000</altitude>
                        <altitudeMode>absolute</altitudeMode>
                        <heading>162.964054</heading>
                        <tilt>90.000000</tilt>
                    </Camera>
                </gx:FlyTo>
                <gx:FlyTo>
                    <gx:flyToMode>smooth</gx:flyToMode>
                    <gx:duration>0.05</gx:duration>
                    <Camera>
                        <gx:horizFov>69.72645906888525</gx:horizFov>
                        <latitude>52.2255388533</latitude>
                        <longitude>6.6932173214</longitude>
                        <altitude>1.700000</altitude>
                        <altitudeMode>absolute</altitudeMode>
                        <heading>158.782623</heading>
                        <tilt>90.000000</tilt>
                    </Camera>
                </gx:FlyTo>
                <gx:FlyTo>
                    <gx:flyToMode>smooth</gx:flyToMode>
                    <gx:duration>0.05</gx:duration>
                    <Camera>
                        <gx:horizFov>69.72645906888525</gx:horizFov>
                        <latitude>52.2255371951</latitude>
                        <longitude>6.6932148176</longitude>
                        <altitude>1.700000</altitude>
                        <altitudeMode>absolute</altitudeMode>
                        <heading>154.601191</heading>
                        <tilt>90.000000</tilt>
                    </Camera>
                </gx:FlyTo>
                <gx:FlyTo>
                    <gx:flyToMode>smooth</gx:flyToMode>
                    <gx:duration>0.05</gx:duration>
                    <Camera>
                        <gx:horizFov>69.72645906888525</gx:horizFov>
                        <latitude>52.2255355369</latitude>
                        <longitude>6.6932123138</longitude>
                        <altitude>1.700000</altitude>
                        <altitudeMode>absolute</altitudeMode>
                        <heading>150.419760</heading>
                        <tilt>90.000000</tilt>
                    </Camera>
                </gx:FlyTo>
                <gx:FlyTo>
                    <gx:flyToMode>smooth</gx:flyToMode>
                    <gx:duration>0.05</gx:duration>
                    <Camera>
                        <gx:horizFov>69.72645906888525</gx:horizFov>
                        <latitude>52.2255338788</latitude>
                        <longitude>6.6932098100</longitude>
                        <altitude>1.700000</altitude>
                        <altitudeMode>absolute</altitudeMode>
                        <heading>146.238329</heading>
                        <tilt>90.000000</tilt>
                    </Camera>
                </gx:FlyTo>
                <gx:FlyTo>
                    <gx:flyToMode>smooth</gx:flyToMode>
                    <gx:duration>0.05</gx:duration>
                    <Camera>
                        <gx:horizFov>69.72645906888525</gx:horizFov>
                        <latitude>52.2255322206</latitude>
                        <longitude>6.6932073062</longitude>
                        <altitude>1.700000</altitude>
                        <altitudeMode>absolute</altitudeMode>
                        <heading>142.056898</heading>
                        <tilt>90.000000</tilt>
                    </Camera>
                </gx:FlyTo>
                <gx:FlyTo>
                    <gx:flyToMode>smooth</gx:flyToMode>
                    <gx:duration>0.05</gx:duration>
                    <Camera>
                        <gx:horizFov>69.72645906888525</gx:horizFov>
                        <latitude>52.2255305624</latitude>
                        <longitude>6.6932048024</longitude>
                        <altitude>1.700000</altitude>
                        <altitudeMode>absolute</altitudeMode>
                        <heading>137.875467</heading>
                        <tilt>90.000000</tilt>
                    </Camera>
                </gx:FlyTo>
                <gx:FlyTo>
                    <gx:flyToMode>smooth</gx:flyToMode>
                    <gx:duration>0.05</gx:duration>
                    <Camera>
                        <gx:horizFov>69.72645906888525</gx:horizFov>
                        <latitude>52.2255289043</latitude>
                        <longitude>6.6932022986</longitude>
                        <altitude>1.700000</altitude>
                        <altitudeMode>absolute</altitudeMode>
                        <heading>133.694036</heading>
                        <tilt>90.000000</tilt>
                    </Camera>
                </gx:FlyTo>
                <gx:FlyTo>
                    <gx:flyToMode>smooth</gx:flyToMode>
                    <gx:duration>0.05</gx:duration>
                    <Camera>
                        <gx:horizFov>69.72645906888525</gx:horizFov>
                        <latitude>52.2255272461</latitude>
                        <longitude>6.6931997947</longitude>
                        <altitude>1.700000</altitude>
                        <altitudeMode>absolute</altitudeMode>
                        <heading>129.512605</heading>
                        <tilt>90.000000</tilt>
                    </Camera>
                </gx:FlyTo>
                <gx:FlyTo>
                    <gx:flyToMode>smooth</gx:flyToMode>
                    <gx:duration>0.05</gx:duration>
                    <Camera>
                        <gx:horizFov>69.72645906888525</gx:horizFov>
                        <latitude>52.2255255879</latitude>
                        <longitude>6.6931972909</longitude>
                        <altitude>1.700000</altitude>
                        <altitudeMode>absolute</altitudeMode>
                        <heading>125.331173</heading>
                        <tilt>90.000000</tilt>
                    </Camera>
                </gx:FlyTo>
                <gx:FlyTo>
                    <gx:flyToMode>smooth</gx:flyToMode>
                    <gx:duration>0.05</gx:duration>
                    <Camera>
                        <gx:horizFov>69.72645906888525</gx:horizFov>
                        <latitude>52.2255239297</latitude>
                        <longitude>6.6931947871</longitude>
                        <altitude>1.700000</altitude>
                        <altitudeMode>absolute</altitudeMode>
                        <heading>121.149742</heading>
                        <tilt>90.000000</tilt>
                    </Camera>
                </gx:FlyTo>
                <gx:FlyTo>
                    <gx:flyToMode>smooth</gx:flyToMode>
                    <gx:duration>0.05</gx:duration>
                    <Camera>
                        <gx:horizFov>69.72645906888525</gx:horizFov>
                        <latitude>52.2255222716</latitude>
                        <longitude>6.6931922833</longitude>
                        <altitude>1.700000</altitude>
                        <altitudeMode>absolute</altitudeMode>
                        <heading>116.968311</heading>
                        <tilt>90.000000</tilt>
                    </Camera>
                </gx:FlyTo>
                <gx:FlyTo>
                    <gx:flyToMode>smooth</gx:flyToMode>
                    <gx:duration>0.05</gx:duration>
                    <Camera>
                        <gx:horizFov>69.72645906888525</gx:horizFov>
                        <latitude>52.2255206134</latitude>
                        <longitude>6.6931897795</longitude>
                        <altitude>1.700000</altitude>
                        <altitudeMode>absolute</altitudeMode>
                        <heading>112.786880</heading>
                        <tilt>90.000000</tilt>
                    </Camera>
                </gx:FlyTo>
                <gx:FlyTo>
                    <gx:flyToMode>smooth</gx:flyToMode>
                    <gx:duration>0.05</gx:duration>
                    <Camera>
                        <gx:horizFov>69.72645906888525</gx:horizFov>
                        <latitude>52.2255189552</latitude>
                        <longitude>6.6931872757</longitude>
                        <altitude>1.700000</altitude>
                        <altitudeMode>absolute</altitudeMode>
                        <heading>108.605449</heading>
                        <tilt>90.000000</tilt>
                    </Camera>
                </gx:FlyTo>
                <gx:FlyTo>
                    <gx:flyToMode>smooth</gx:flyToMode>
                    <gx:duration>0.05</gx:duration>
                    <Camera>
                        <gx:horizFov>69.72645906888525</gx:horizFov>
                        <latitude>52.2255172971</latitude>
                        <longitude>6.6931847719</longitude>
                        <altitude>1.700000</altitude>
                        <altitudeMode>absolute</altitudeMode>
                        <heading>104.424018</heading>
                        <tilt>90.000000</tilt>
                    </Camera>
                </gx:FlyTo>
                <gx:FlyTo>
                    <gx:flyToMode>smooth</gx:flyToMode>
                    <gx:duration>0.05</gx:duration>
                    <Camera>
                        <gx:horizFov>69.72645906888525</gx:horizFov>
                        <latitude>52.2255156389</latitude>
                        <longitude>6.6931822681</longitude>
                        <altitude>1.700000</altitude>
                        <altitudeMode>absolute</altitudeMode>
                        <heading>100.242586</heading>
                        <tilt>90.000000</tilt>
                    </Camera>
                </gx:FlyTo>
                <gx:FlyTo>
                    <gx:flyToMode>smooth</gx:flyToMode>
                    <gx:duration>0.05</gx:duration>
                    <Camera>
                        <gx:horizFov>69.72645906888525</gx:horizFov>
                        <latitude>52.2255139807</latitude>
                        <longitude>6.6931797643</longitude>
                        <altitude>1.700000</altitude>
                        <altitudeMode>absolute</altitudeMode>
                        <heading>96.061155</heading>
                        <tilt>90.000000</tilt>
                    </Camera>
                </gx:FlyTo>
                <gx:FlyTo>
                    <gx:flyToMode>smooth</gx:flyToMode>
                    <gx:duration>0.05</gx:duration>
                    <Camera>
                        <gx:horizFov>69.72645906888525</gx:horizFov>
                        <latitude>52.2255123225</latitude>
                        <longitude>6.6931772605</longitude>
                        <altitude>1.700000</altitude>
                        <altitudeMode>absolute</altitudeMode>
                        <heading>91.879724</heading>
                        <tilt>90.000000</tilt>
                    </Camera>
                </gx:FlyTo>
                <gx:FlyTo>
                    <gx:flyToMode>smooth</gx:flyToMode>
                    <gx:duration>0.05</gx:duration>
                    <Camera>
                        <gx:horizFov>69.72645906888525</gx:horizFov>
                        <latitude>52.2255106644</latitude>
                        <longitude>6.6931747567</longitude>
                        <altitude>1.700000</altitude>
                        <altitudeMode>absolute</altitudeMode>
                        <heading>87.698293</heading>
                        <tilt>90.000000</tilt>
                    </Camera>
                </gx:FlyTo>
                <gx:FlyTo>
                    <gx:flyToMode>smooth</gx:flyToMode>
                    <gx:duration>0.05</gx:duration>
                    <Camera>
                        <gx:horizFov>69.72645906888525</gx:horizFov>
                        <latitude>52.2255090062</latitude>
                        <longitude>6.6931722529</longitude>
                        <altitude>1.700000</altitude>
                        <altitudeMode>absolute</altitudeMode>
                        <heading>83.516862</heading>
                        <tilt>90.000000</tilt>
                    </Camera>
                </gx:FlyTo>
                <gx:FlyTo>
                    <gx:flyToMode>smooth</gx:flyToMode>
                    <gx:duration>0.05</gx:duration>
                    <Camera>
                        <gx:horizFov>69.72645906888525</gx:horizFov>
                        <latitude>52.2255073480</latitude>
                        <longitude>6.6931697491</longitude>
                        <altitude>1.700000</altitude>
                        <altitudeMode>absolute</altitudeMode>
                        <heading>79.335431</heading>
                        <tilt>90.000000</tilt>
                    </Camera>
                </gx:FlyTo>
                <gx:FlyTo>
                    <gx:flyToMode>smooth</gx:flyToMode>
                    <gx:duration>0.05</gx:duration>
                    <Camera>
                        <gx:horizFov>69.72645906888525</gx:horizFov>
                        <latitude>52.2255056899</latitude>
                        <longitude>6.6931672453</longitude>
                        <altitude>1.700000</altitude>
                        <altitudeMode>absolute</altitudeMode>
                        <heading>75.153999</heading>
                        <tilt>90.000000</tilt>
                    </Camera>
                </gx:FlyTo>
                <gx:FlyTo>
                    <gx:flyToMode>smooth</gx:flyToMode>
                    <gx:duration>0.05</gx:duration>
                    <Camera>
                        <gx:horizFov>69.72645906888525</gx:horizFov>
                        <latitude>52.2255040317</latitude>
                        <longitude>6.6931647415</longitude>
                        <altitude>1.700000</altitude>
                        <altitudeMode>absolute</altitudeMode>
                        <heading>70.972568</heading>
                        <tilt>90.000000</tilt>
                    </Camera>
                </gx:FlyTo>
                <gx:FlyTo>
                    <gx:flyToMode>smooth</gx:flyToMode>
                    <gx:duration>0.05</gx:duration>
                    <Camera>
                        <gx:horizFov>69.72645906888525</gx:horizFov>
                        <latitude>52.2255023735</latitude>
                        <longitude>6.6931622377</longitude>
                        <altitude>1.700000</altitude>
                        <altitudeMode>absolute</altitudeMode>
                        <heading>66.791137</heading>
                        <tilt>90.000000</tilt>
                    </Camera>
                </gx:FlyTo>
                <gx:FlyTo>
                    <gx:flyToMode>smooth</gx:flyToMode>
                    <gx:duration>0.05</gx:duration>
                    <Camera>
                        <gx:horizFov>69.72645906888525</gx:horizFov>
                        <latitude>52.2255007154</latitude>
                        <longitude>6.6931597339</longitude>
                        <altitude>1.700000</altitude>
                        <altitudeMode>absolute</altitudeMode>
                        <heading>62.609706</heading>
                        <tilt>90.000000</tilt>
                    </Camera>
                </gx:FlyTo>
                <gx:FlyTo>
                    <gx:flyToMode>smooth</gx:flyToMode>
                    <gx:duration>0.05</gx:duration>
                    <Camera>
                        <gx:horizFov>69.72645906888525</gx:horizFov>
                        <latitude>52.2254990572</latitude>
                        <longitude>6.6931572301</longitude>
                        <altitude>1.700000</altitude>
                        <altitudeMode>absolute</altitudeMode>
                        <heading>58.428275</heading>
                        <tilt>90.000000</tilt>
                    </Camera>
                </gx:FlyTo>
                <gx:FlyTo>
                    <gx:flyToMode>smooth</gx:flyToMode>
                    <gx:duration>0.05</gx:duration>
                    <Camera>
                        <gx:horizFov>69.72645906888525</gx:horizFov>
                        <latitude>52.2254973990</latitude>
                        <longitude>6.6931547263</longitude>
                        <altitude>1.700000</altitude>
                        <altitudeMode>absolute</altitudeMode>
                        <heading>54.246844</heading>
                        <tilt>90.000000</tilt>
                    </Camera>
                </gx:FlyTo>
                <gx:FlyTo>
                    <gx:flyToMode>smooth</gx:flyToMode>
                    <gx:duration>0.05</gx:duration>
                    <Camera>
                        <gx:horizFov>69.72645906888525</gx:horizFov>
                        <latitude>52.2254957408</latitude>
                        <longitude>6.6931522225</longitude>
                        <altitude>1.700000</altitude>
                        <altitudeMode>absolute</altitudeMode>
                        <heading>50.065413</heading>
                        <tilt>90.000000</tilt>
                    </Camera>
                </gx:FlyTo>
                <gx:FlyTo>
                    <gx:flyToMode>smooth</gx:flyToMode>
                    <gx:duration>0.05</gx:duration>
                    <Camera>
                        <gx:horizFov>69.72645906888525</gx:horizFov>
                        <latitude>52.2254940827</latitude>
                        <longitude>6.6931497187</longitude>
                        <altitude>1.700000</altitude>
                        <altitudeMode>absolute</altitudeMode>
                        <heading>45.883981</heading>
                        <tilt>90.000000</tilt>
                    </Camera>
                </gx:FlyTo>
                <gx:FlyTo>
                    <gx:flyToMode>bounce</gx:flyToMode>
                    <gx:duration>0.05</gx:duration>
                    <Camera>
                        <gx:horizFov>69.72645906888525</gx:horizFov>
                        <latitude>52.2254940827</latitude>
                        <longitude>6.6931497187</longitude>
                        <altitude>1.700000</altitude>
                        <altitudeMode>absolute</altitudeMode>
                        <heading>45.883981</heading>
                        <tilt>90.000000</tilt>
                    </Camera>
                </gx:FlyTo>
                <gx:FlyTo>
                    <gx:flyToMode>bounce</gx:flyToMode>
                    <gx:duration>0.5</gx:duration>
                    <Camera>
                        <gx:horizFov>69.72645906888525</gx:horizFov>
                        <latitude>52.2254940827</latitude>
                        <longitude>6.6931497187</longitude>
                        <altitude>1.700000</altitude>
                        <altitudeMode>absolute</altitudeMode>
                        <heading>45.883981</heading>
                        <tilt>90.000000</tilt>
                    </Camera>
                </gx:FlyTo>
                <gx:Wait>
                    <gx:duration>0.1</gx:duration>
                </gx:Wait>
                <gx:FlyTo>
                    <gx:flyToMode>bounce</gx:flyToMode>
                    <gx:duration>2.0</gx:duration>
                    <Camera>
                        <gx:horizFov>69.72645906888525</gx:horizFov>
                        <latitude>52.2254940827</latitude>
                        <longitude>6.6931497187</longitude>
                        <altitude>1.700000</altitude>
                        <altitudeMode>absolute</altitudeMode>
                        <heading>45.883981</heading>
                        <tilt>90.000000</tilt>
                    </Camera>
                </gx:FlyTo>
                <gx:Wait>
                    <gx:duration>0.1</gx:duration>
                </gx:Wait>
                <gx:FlyTo>
                    <gx:flyToMode>smooth</gx:flyToMode>
                    <gx:duration>0.05</gx:duration>
                    <Camera>
                        <gx:horizFov>69.72645906888525</gx:horizFov>
                        <latitude>52.2254937022</latitude>
                        <longitude>6.6931507513</longitude>
                        <altitude>1.700000</altitude>
                        <altitudeMode>absolute</altitudeMode>
                        <heading>45.183552</heading>
                        <tilt>90.000000</tilt>
                    </Camera>
                </gx:FlyTo>
                <gx:FlyTo>
                    <gx:flyToMode>smooth</gx:flyToMode>
                    <gx:duration>0.05</gx:duration>
                    <Camera>
                        <gx:horizFov>69.72645906888525</gx:horizFov>
                        <latitude>52.2254933217</latitude>
                        <longitude>6.6931517839</longitude>
                        <altitude>1.700000</altitude>
                        <altitudeMode>absolute</altitudeMode>
                        <heading>44.483122</heading>
                        <tilt>90.000000</tilt>
                    </Camera>
                </gx:FlyTo>
                <gx:FlyTo>
                    <gx:flyToMode>smooth</gx:flyToMode>
                    <gx:duration>0.05</gx:duration>
                    <Camera>
                        <gx:horizFov>69.72645906888525</gx:horizFov>
                        <latitude>52.2254929411</latitude>
                        <longitude>6.6931528165</longitude>
                        <altitude>1.700000</altitude>
                        <altitudeMode>absolute</altitudeMode>
                        <heading>43.782693</heading>
                        <tilt>90.000000</tilt>
                    </Camera>
                </gx:FlyTo>
                <gx:FlyTo>
                    <gx:flyToMode>smooth</gx:flyToMode>
                    <gx:duration>0.05</gx:duration>
                    <Camera>
                        <gx:horizFov>69.72645906888525</gx:horizFov>
                        <latitude>52.2254925606</latitude>
                        <longitude>6.6931538490</longitude>
                        <altitude>1.700000</altitude>
                        <altitudeMode>absolute</altitudeMode>
                        <heading>43.082263</heading>
                        <tilt>90.000000</tilt>
                    </Camera>
                </gx:FlyTo>
                <gx:FlyTo>
                    <gx:flyToMode>smooth</gx:flyToMode>
                    <gx:duration>0.05</gx:duration>
                    <Camera>
                        <gx:horizFov>69.72645906888525</gx:horizFov>
                        <latitude>52.2254921801</latitude>
                        <longitude>6.6931548816</longitude>
                        <altitude>1.700000</altitude>
                        <altitudeMode>absolute</altitudeMode>
                        <heading>42.381834</heading>
                        <tilt>90.000000</tilt>
                    </Camera>
                </gx:FlyTo>
                <gx:FlyTo>
                    <gx:flyToMode>smooth</gx:flyToMode>
                    <gx:duration>0.05</gx:duration>
                    <Camera>
                        <gx:horizFov>69.72645906888525</gx:horizFov>
                        <latitude>52.2254917996</latitude>
                        <longitude>6.6931559142</longitude>
                        <altitude>1.700000</altitude>
                        <altitudeMode>absolute</altitudeMode>
                        <heading>41.681404</heading>
                        <tilt>90.000000</tilt>
                    </Camera>
                </gx:FlyTo>
                <gx:FlyTo>
                    <gx:flyToMode>smooth</gx:flyToMode>
                    <gx:duration>0.05</gx:duration>
                    <Camera>
                        <gx:horizFov>69.72645906888525</gx:horizFov>
                        <latitude>52.2254914191</latitude>
                        <longitude>6.6931569468</longitude>
                        <altitude>1.700000</altitude>
                        <altitudeMode>absolute</altitudeMode>
                        <heading>40.980974</heading>
                        <tilt>90.000000</tilt>
                    </Camera>
                </gx:FlyTo>
                <gx:FlyTo>
                    <gx:flyToMode>smooth</gx:flyToMode>
                    <gx:duration>0.05</gx:duration>
                    <Camera>
                        <gx:horizFov>69.72645906888525</gx:horizFov>
                        <latitude>52.2254910386</latitude>
                        <longitude>6.6931579794</longitude>
                        <altitude>1.700000</altitude>
                        <altitudeMode>absolute</altitudeMode>
                        <heading>40.280545</heading>
                        <tilt>90.000000</tilt>
                    </Camera>
                </gx:FlyTo>
                <gx:FlyTo>
                    <gx:flyToMode>smooth</gx:flyToMode>
                    <gx:duration>0.05</gx:duration>
                    <Camera>
                        <gx:horizFov>69.72645906888525</gx:horizFov>
                        <latitude>52.2254906581</latitude>
                        <longitude>6.6931590120</longitude>
                        <altitude>1.700000</altitude>
                        <altitudeMode>absolute</altitudeMode>
                        <heading>39.580115</heading>
                        <tilt>90.000000</tilt>
                    </Camera>
                </gx:FlyTo>
                <gx:FlyTo>
                    <gx:flyToMode>smooth</gx:flyToMode>
                    <gx:duration>0.05</gx:duration>
                    <Camera>
                        <gx:horizFov>69.72645906888525</gx:horizFov>
                        <latitude>52.2254902776</latitude>
                        <longitude>6.6931600446</longitude>
                        <altitude>1.700000</altitude>
                        <altitudeMode>absolute</altitudeMode>
                        <heading>38.879686</heading>
                        <tilt>90.000000</tilt>
                    </Camera>
                </gx:FlyTo>
                <gx:FlyTo>
                    <gx:flyToMode>smooth</gx:flyToMode>
                    <gx:duration>0.05</gx:duration>
                    <Camera>
                        <gx:horizFov>69.72645906888525</gx:horizFov>
                        <latitude>52.2254898971</latitude>
                        <longitude>6.6931610772</longitude>
                        <altitude>1.700000</altitude>
                        <altitudeMode>absolute</altitudeMode>
                        <heading>38.179256</heading>
                        <tilt>90.000000</tilt>
                    </Camera>
                </gx:FlyTo>
                <gx:FlyTo>
                    <gx:flyToMode>smooth</gx:flyToMode>
                    <gx:duration>0.05</gx:duration>
                    <Camera>
                        <gx:horizFov>69.72645906888525</gx:horizFov>
                        <latitude>52.2254895166</latitude>
                        <longitude>6.6931621098</longitude>
                        <altitude>1.700000</altitude>
                        <altitudeMode>absolute</altitudeMode>
                        <heading>37.478827</heading>
                        <tilt>90.000000</tilt>
                    </Camera>
                </gx:FlyTo>
                <gx:FlyTo>
                    <gx:flyToMode>smooth</gx:flyToMode>
                    <gx:duration>0.05</gx:duration>
                    <Camera>
                        <gx:horizFov>69.72645906888525</gx:horizFov>
                        <latitude>52.2254891361</latitude>
                        <longitude>6.6931631424</longitude>
                        <altitude>1.700000</altitude>
                        <altitudeMode>absolute</altitudeMode>
                        <heading>36.778397</heading>
                        <tilt>90.000000</tilt>
                    </Camera>
                </gx:FlyTo>
                <gx:FlyTo>
                    <gx:flyToMode>smooth</gx:flyToMode>
                    <gx:duration>0.05</gx:duration>
                    <Camera>
                        <gx:horizFov>69.72645906888525</gx:horizFov>
                        <latitude>52.2254887556</latitude>
                        <longitude>6.6931641750</longitude>
                        <altitude>1.700000</altitude>
                        <altitudeMode>absolute</altitudeMode>
                        <heading>36.077967</heading>
                        <tilt>90.000000</tilt>
                    </Camera>
                </gx:FlyTo>
                <gx:FlyTo>
                    <gx:flyToMode>smooth</gx:flyToMode>
                    <gx:duration>0.05</gx:duration>
                    <Camera>
                        <gx:horizFov>69.72645906888525</gx:horizFov>
                        <latitude>52.2254883751</latitude>
                        <longitude>6.6931652075</longitude>
                        <altitude>1.700000</altitude>
                        <altitudeMode>absolute</altitudeMode>
                        <heading>35.377538</heading>
                        <tilt>90.000000</tilt>
                    </Camera>
                </gx:FlyTo>
                <gx:FlyTo>
                    <gx:flyToMode>smooth</gx:flyToMode>
                    <gx:duration>0.05</gx:duration>
                    <Camera>
                        <gx:horizFov>69.72645906888525</gx:horizFov>
                        <latitude>52.2254879946</latitude>
                        <longitude>6.6931662401</longitude>
                        <altitude>1.700000</altitude>
                        <altitudeMode>absolute</altitudeMode>
                        <heading>34.677108</heading>
                        <tilt>90.000000</tilt>
                    </Camera>
                </gx:FlyTo>
                <gx:FlyTo>
                    <gx:flyToMode>smooth</gx:flyToMode>
                    <gx:duration>0.05</gx:duration>
                    <Camera>
                        <gx:horizFov>69.72645906888525</gx:horizFov>
                        <latitude>52.2254876140</latitude>
                        <longitude>6.6931672727</longitude>
                        <altitude>1.700000</altitude>
                        <altitudeMode>absolute</altitudeMode>
                        <heading>33.976679</heading>
                        <tilt>90.000000</tilt>
                    </Camera>
                </gx:FlyTo>
                <gx:FlyTo>
                    <gx:flyToMode>smooth</gx:flyToMode>
                    <gx:duration>0.05</gx:duration>
                    <Camera>
                        <gx:horizFov>69.72645906888525</gx:horizFov>
                        <latitude>52.2254872335</latitude>
                        <longitude>6.6931683053</longitude>
                        <altitude>1.700000</altitude>
                        <altitudeMode>absolute</altitudeMode>
                        <heading>33.276249</heading>
                        <tilt>90.000000</tilt>
                    </Camera>
                </gx:FlyTo>
                <gx:FlyTo>
                    <gx:flyToMode>smooth</gx:flyToMode>
                    <gx:duration>0.05</gx:duration>
                    <Camera>
                        <gx:horizFov>69.72645906888525</gx:horizFov>
                        <latitude>52.2254868530</latitude>
                        <longitude>6.6931693379</longitude>
                        <altitude>1.700000</altitude>
                        <altitudeMode>absolute</altitudeMode>
                        <heading>32.575820</heading>
                        <tilt>90.000000</tilt>
                    </Camera>
                </gx:FlyTo>
                <gx:FlyTo>
                    <gx:flyToMode>smooth</gx:flyToMode>
                    <gx:duration>0.05</gx:duration>
                    <Camera>
                        <gx:horizFov>69.72645906888525</gx:horizFov>
                        <latitude>52.2254864725</latitude>
                        <longitude>6.6931703705</longitude>
                        <altitude>1.700000</altitude>
                        <altitudeMode>absolute</altitudeMode>
                        <heading>31.875390</heading>
                        <tilt>90.000000</tilt>
                    </Camera>
                </gx:FlyTo>
                <gx:FlyTo>
                    <gx:flyToMode>smooth</gx:flyToMode>
                    <gx:duration>0.05</gx:duration>
                    <Camera>
                        <gx:horizFov>69.72645906888525</gx:horizFov>
                        <latitude>52.2254860920</latitude>
                        <longitude>6.6931714031</longitude>
                        <altitude>1.700000</altitude>
                        <altitudeMode>absolute</altitudeMode>
                        <heading>31.174961</heading>
                        <tilt>90.000000</tilt>
                    </Camera>
                </gx:FlyTo>
                <gx:FlyTo>
                    <gx:flyToMode>smooth</gx:flyToMode>
                    <gx:duration>0.05</gx:duration>
                    <Camera>
                        <gx:horizFov>69.72645906888525</gx:horizFov>
                        <latitude>52.2254857115</latitude>
                        <longitude>6.6931724357</longitude>
                        <altitude>1.700000</altitude>
                        <altitudeMode>absolute</altitudeMode>
                        <heading>30.474531</heading>
                        <tilt>90.000000</tilt>
                    </Camera>
                </gx:FlyTo>
                <gx:FlyTo>
                    <gx:flyToMode>smooth</gx:flyToMode>
                    <gx:duration>0.05</gx:duration>
                    <Camera>
                        <gx:horizFov>69.72645906888525</gx:horizFov>
                        <latitude>52.2254853310</latitude>
                        <longitude>6.6931734683</longitude>
                        <altitude>1.700000</altitude>
                        <altitudeMode>absolute</altitudeMode>
                        <heading>29.774101</heading>
                        <tilt>90.000000</tilt>
                    </Camera>
                </gx:FlyTo>
                <gx:FlyTo>
                    <gx:flyToMode>smooth</gx:flyToMode>
                    <gx:duration>0.05</gx:duration>
                    <Camera>
                        <gx:horizFov>69.72645906888525</gx:horizFov>
                        <latitude>52.2254849505</latitude>
                        <longitude>6.6931745009</longitude>
                        <altitude>1.700000</altitude>
                        <altitudeMode>absolute</altitudeMode>
                        <heading>29.073672</heading>
                        <tilt>90.000000</tilt>
                    </Camera>
                </gx:FlyTo>
                <gx:FlyTo>
                    <gx:flyToMode>smooth</gx:flyToMode>
                    <gx:duration>0.05</gx:duration>
                    <Camera>
                        <gx:horizFov>69.72645906888525</gx:horizFov>
                        <latitude>52.2254845700</latitude>
                        <longitude>6.6931755335</longitude>
                        <altitude>1.700000</altitude>
                        <altitudeMode>absolute</altitudeMode>
                        <heading>28.373242</heading>
                        <tilt>90.000000</tilt>
                    </Camera>
                </gx:FlyTo>
                <gx:FlyTo>
                    <gx:flyToMode>smooth</gx:flyToMode>
                    <gx:duration>0.05</gx:duration>
                    <Camera>
                        <gx:horizFov>69.72645906888525</gx:horizFov>
                        <latitude>52.2254841895</latitude>
                        <longitude>6.6931765660</longitude>
                        <altitude>1.700000</altitude>
                        <altitudeMode>absolute</altitudeMode>
                        <heading>27.672813</heading>
                        <tilt>90.000000</tilt>
                    </Camera>
                </gx:FlyTo>
                <gx:FlyTo>
                    <gx:flyToMode>smooth</gx:flyToMode>
                    <gx:duration>0.05</gx:duration>
                    <Camera>
                        <gx:horizFov>69.72645906888525</gx:horizFov>
                        <latitude>52.2254838090</latitude>
                        <longitude>6.6931775986</longitude>
                        <altitude>1.700000</altitude>
                        <altitudeMode>absolute</altitudeMode>
                        <heading>26.972383</heading>
                        <tilt>90.000000</tilt>
                    </Camera>
                </gx:FlyTo>
                <gx:FlyTo>
                    <gx:flyToMode>smooth</gx:flyToMode>
                    <gx:duration>0.05</gx:duration>
                    <Camera>
                        <gx:horizFov>69.72645906888525</gx:horizFov>
                        <latitude>52.2254834285</latitude>
                        <longitude>6.6931786312</longitude>
                        <altitude>1.700000</altitude>
                        <altitudeMode>absolute</altitudeMode>
                        <heading>26.271954</heading>
                        <tilt>90.000000</tilt>
                    </Camera>
                </gx:FlyTo>
                <gx:FlyTo>
                    <gx:flyToMode>smooth</gx:flyToMode>
                    <gx:duration>0.05</gx:duration>
                    <Camera>
                        <gx:horizFov>69.72645906888525</gx:horizFov>
                        <latitude>52.2254830480</latitude>
                        <longitude>6.6931796638</longitude>
                        <altitude>1.700000</altitude>
                        <altitudeMode>absolute</altitudeMode>
                        <heading>25.571524</heading>
                        <tilt>90.000000</tilt>
                    </Camera>
                </gx:FlyTo>
                <gx:FlyTo>
                    <gx:flyToMode>smooth</gx:flyToMode>
                    <gx:duration>0.05</gx:duration>
                    <Camera>
                        <gx:horizFov>69.72645906888525</gx:horizFov>
                        <latitude>52.2254826674</latitude>
                        <longitude>6.6931806964</longitude>
                        <altitude>1.700000</altitude>
                        <altitudeMode>absolute</altitudeMode>
                        <heading>24.871094</heading>
                        <tilt>90.000000</tilt>
                    </Camera>
                </gx:FlyTo>
                <gx:FlyTo>
                    <gx:flyToMode>smooth</gx:flyToMode>
                    <gx:duration>0.05</gx:duration>
                    <Camera>
                        <gx:horizFov>69.72645906888525</gx:horizFov>
                        <latitude>52.2254822869</latitude>
                        <longitude>6.6931817290</longitude>
                        <altitude>1.700000</altitude>
                        <altitudeMode>absolute</altitudeMode>
                        <heading>24.170665</heading>
                        <tilt>90.000000</tilt>
                    </Camera>
                </gx:FlyTo>
                <gx:FlyTo>
                    <gx:flyToMode>smooth</gx:flyToMode>
                    <gx:duration>0.05</gx:duration>
                    <Camera>
                        <gx:horizFov>69.72645906888525</gx:horizFov>
                        <latitude>52.2254819064</latitude>
                        <longitude>6.6931827616</longitude>
                        <altitude>1.700000</altitude>
                        <altitudeMode>absolute</altitudeMode>
                        <heading>23.470235</heading>
                        <tilt>90.000000</tilt>
                    </Camera>
                </gx:FlyTo>
                <gx:FlyTo>
                    <gx:flyToMode>smooth</gx:flyToMode>
                    <gx:duration>0.05</gx:duration>
                    <Camera>
                        <gx:horizFov>69.72645906888525</gx:horizFov>
                        <latitude>52.2254815259</latitude>
                        <longitude>6.6931837942</longitude>
                        <altitude>1.700000</altitude>
                        <altitudeMode>absolute</altitudeMode>
                        <heading>22.769806</heading>
                        <tilt>90.000000</tilt>
                    </Camera>
                </gx:FlyTo>
                <gx:FlyTo>
                    <gx:flyToMode>smooth</gx:flyToMode>
                    <gx:duration>0.05</gx:duration>
                    <Camera>
                        <gx:horizFov>69.72645906888525</gx:horizFov>
                        <latitude>52.2254811454</latitude>
                        <longitude>6.6931848268</longitude>
                        <altitude>1.700000</altitude>
                        <altitudeMode>absolute</altitudeMode>
                        <heading>22.069376</heading>
                        <tilt>90.000000</tilt>
                    </Camera>
                </gx:FlyTo>
                <gx:FlyTo>
                    <gx:flyToMode>smooth</gx:flyToMode>
                    <gx:duration>0.05</gx:duration>
                    <Camera>
                        <gx:horizFov>69.72645906888525</gx:horizFov>
                        <latitude>52.2254807649</latitude>
                        <longitude>6.6931858594</longitude>
                        <altitude>1.700000</altitude>
                        <altitudeMode>absolute</altitudeMode>
                        <heading>21.368947</heading>
                        <tilt>90.000000</tilt>
                    </Camera>
                </gx:FlyTo>
                <gx:FlyTo>
                    <gx:flyToMode>smooth</gx:flyToMode>
                    <gx:duration>0.05</gx:duration>
                    <Camera>
                        <gx:horizFov>69.72645906888525</gx:horizFov>
                        <latitude>52.2254803844</latitude>
                        <longitude>6.6931868919</longitude>
                        <altitude>1.700000</altitude>
                        <altitudeMode>absolute</altitudeMode>
                        <heading>20.668517</heading>
                        <tilt>90.000000</tilt>
                    </Camera>
                </gx:FlyTo>
                <gx:FlyTo>
                    <gx:flyToMode>smooth</gx:flyToMode>
                    <gx:duration>0.05</gx:duration>
                    <Camera>
                        <gx:horizFov>69.72645906888525</gx:horizFov>
                        <latitude>52.2254800039</latitude>
                        <longitude>6.6931879245</longitude>
                        <altitude>1.700000</altitude>
                        <altitudeMode>absolute</altitudeMode>
                        <heading>19.968088</heading>
                        <tilt>90.000000</tilt>
                    </Camera>
                </gx:FlyTo>
                <gx:FlyTo>
                    <gx:flyToMode>smooth</gx:flyToMode>
                    <gx:duration>0.05</gx:duration>
                    <Camera>
                        <gx:horizFov>69.72645906888525</gx:horizFov>
                        <latitude>52.2254796234</latitude>
                        <longitude>6.6931889571</longitude>
                        <altitude>1.700000</altitude>
                        <altitudeMode>absolute</altitudeMode>
                        <heading>19.267658</heading>
                        <tilt>90.000000</tilt>
                    </Camera>
                </gx:FlyTo>
                <gx:FlyTo>
                    <gx:flyToMode>smooth</gx:flyToMode>
                    <gx:duration>0.05</gx:duration>
                    <Camera>
                        <gx:horizFov>69.72645906888525</gx:horizFov>
                        <latitude>52.2254792429</latitude>
                        <longitude>6.6931899897</longitude>
                        <altitude>1.700000</altitude>
                        <altitudeMode>absolute</altitudeMode>
                        <heading>18.567228</heading>
                        <tilt>90.000000</tilt>
                    </Camera>
                </gx:FlyTo>
                <gx:FlyTo>
                    <gx:flyToMode>smooth</gx:flyToMode>
                    <gx:duration>0.05</gx:duration>
                    <Camera>
                        <gx:horizFov>69.72645906888525</gx:horizFov>
                        <latitude>52.2254788624</latitude>
                        <longitude>6.6931910223</longitude>
                        <altitude>1.700000</altitude>
                        <altitudeMode>absolute</altitudeMode>
                        <heading>17.866799</heading>
                        <tilt>90.000000</tilt>
                    </Camera>
                </gx:FlyTo>
                <gx:FlyTo>
                    <gx:flyToMode>bounce</gx:flyToMode>
                    <gx:duration>0.05</gx:duration>
                    <Camera>
                        <gx:horizFov>69.72645906888525</gx:horizFov>
                        <latitude>52.2254788624</latitude>
                        <longitude>6.6931910223</longitude>
                        <altitude>1.700000</altitude>
                        <altitudeMode>absolute</altitudeMode>
                        <heading>17.866799</heading>
                        <tilt>90.000000</tilt>
                    </Camera>
                </gx:FlyTo>
                <gx:FlyTo>
                    <gx:flyToMode>bounce</gx:flyToMode>
                    <gx:duration>0.5</gx:duration>
                    <Camera>
                        <gx:horizFov>69.72645906888525</gx:horizFov>
                        <latitude>52.2254788624</latitude>
                        <longitude>6.6931910223</longitude>
                        <altitude>1.700000</altitude>
                        <altitudeMode>absolute</altitudeMode>
                        <heading>17.866799</heading>
                        <tilt>90.000000</tilt>
                    </Camera>
                </gx:FlyTo>
                <gx:Wait>
                    <gx:duration>0.1</gx:duration>
                </gx:Wait>
                <gx:FlyTo>
                    <gx:flyToMode>bounce</gx:flyToMode>
                    <gx:duration>2.0</gx:duration>
                    <Camera>
                        <gx:horizFov>69.72645906888525</gx:horizFov>
                        <latitude>52.2254788624</latitude>
                        <longitude>6.6931910223</longitude>
                        <altitude>1.700000</altitude>
                        <altitudeMode>absolute</altitudeMode>
                        <heading>17.866799</heading>
                        <tilt>90.000000</tilt>
                    </Camera>
                </gx:FlyTo>
                <gx:Wait>
                    <gx:duration>0.1</gx:duration>
                </gx:Wait>
                <gx:FlyTo>
                    <gx:flyToMode>smooth</gx:flyToMode>
                    <gx:duration>0.05</gx:duration>
                    <Camera>
                        <gx:horizFov>69.72645906888525</gx:horizFov>
                        <latitude>52.2254799582</latitude>
                        <longitude>6.6931914949</longitude>
                        <altitude>1.838097</altitude>
                        <altitudeMode>absolute</altitudeMode>
                        <heading>13.670129</heading>
                        <tilt>92.249111</tilt>
                    </Camera>
                </gx:FlyTo>
                <gx:FlyTo>
                    <gx:flyToMode>smooth</gx:flyToMode>
                    <gx:duration>0.05</gx:duration>
                    <Camera>
                        <gx:horizFov>69.72645906888525</gx:horizFov>
                        <latitude>52.2254810539</latitude>
                        <longitude>6.6931919675</longitude>
                        <altitude>1.976194</altitude>
                        <altitudeMode>absolute</altitudeMode>
                        <heading>9.473459</heading>
                        <tilt>94.498223</tilt>
                    </Camera>
                </gx:FlyTo>
                <gx:FlyTo>
                    <gx:flyToMode>smooth</gx:flyToMode>
                    <gx:duration>0.05</gx:duration>
                    <Camera>
                        <gx:horizFov>69.72645906888525</gx:horizFov>
                        <latitude>52.2254821497</latitude>
                        <longitude>6.6931924402</longitude>
                        <altitude>2.114292</altitude>
                        <altitudeMode>absolute</altitudeMode>
                        <heading>5.276789</heading>
                        <tilt>96.747334</tilt>
                    </Camera>
                </gx:FlyTo>
                <gx:FlyTo>
                    <gx:flyToMode>smooth</gx:flyToMode>
                    <gx:duration>0.05</gx:duration>
                    <Camera>
                        <gx:horizFov>69.72645906888525</gx:horizFov>
                        <latitude>52.2254832455</latitude>
                        <longitude>6.6931929128</longitude>
                        <altitude>2.252389</altitude>
                        <altitudeMode>absolute</altitudeMode>
                        <heading>1.080119</heading>
                        <tilt>98.996446</tilt>
                    </Camera>
                </gx:FlyTo>
                <gx:FlyTo>
                    <gx:flyToMode>smooth</gx:flyToMode>
                    <gx:duration>0.05</gx:duration>
                    <Camera>
                        <gx:horizFov>69.72645906888525</gx:horizFov>
                        <latitude>52.2254843413</latitude>
                        <longitude>6.6931933854</longitude>
                        <altitude>2.390486</altitude>
                        <altitudeMode>absolute</altitudeMode>
                        <heading>-3.116551</heading>
                        <tilt>101.245557</tilt>
                    </Camera>
                </gx:FlyTo>
                <gx:FlyTo>
                    <gx:flyToMode>smooth</gx:flyToMode>
                    <gx:duration>0.05</gx:duration>
                    <Camera>
                        <gx:horizFov>69.72645906888525</gx:horizFov>
                        <latitude>52.2254854371</latitude>
                        <longitude>6.6931938580</longitude>
                        <altitude>2.528583</altitude>
                        <altitudeMode>absolute</altitudeMode>
                        <heading>-7.313221</heading>
                        <tilt>103.494668</tilt>
                    </Camera>
                </gx:FlyTo>
                <gx:FlyTo>
                    <gx:flyToMode>smooth</gx:flyToMode>
                    <gx:duration>0.05</gx:duration>
                    <Camera>
                        <gx:horizFov>69.72645906888525</gx:horizFov>
                        <latitude>52.2254865328</latitude>
                        <longitude>6.6931943306</longitude>
                        <altitude>2.666680</altitude>
                        <altitudeMode>absolute</altitudeMode>
                        <heading>-11.509891</heading>
                        <tilt>105.743780</tilt>
                    </Camera>
                </gx:FlyTo>
                <gx:FlyTo>
                    <gx:flyToMode>smooth</gx:flyToMode>
                    <gx:duration>0.05</gx:duration>
                    <Camera>
                        <gx:horizFov>69.72645906888525</gx:horizFov>
                        <latitude>52.2254876286</latitude>
                        <longitude>6.6931948032</longitude>
                        <altitude>2.804778</altitude>
                        <altitudeMode>absolute</altitudeMode>
                        <heading>-15.706561</heading>
                        <tilt>107.992891</tilt>
                    </Camera>
                </gx:FlyTo>
                <gx:FlyTo>
                    <gx:flyToMode>smooth</gx:flyToMode>
                    <gx:duration>0.05</gx:duration>
                    <Camera>
                        <gx:horizFov>69.72645906888525</gx:horizFov>
                        <latitude>52.2254887244</latitude>
                        <longitude>6.6931952759</longitude>
                        <altitude>2.942875</altitude>
                        <altitudeMode>absolute</altitudeMode>
                        <heading>-19.903231</heading>
                        <tilt>110.242003</tilt>
                    </Camera>
                </gx:FlyTo>
                <gx:FlyTo>
                    <gx:flyToMode>smooth</gx:flyToMode>
                    <gx:duration>0.05</gx:duration>
                    <Camera>
                        <gx:horizFov>69.72645906888525</gx:horizFov>
                        <latitude>52.2254898202</latitude>
                        <longitude>6.6931957485</longitude>
                        <altitude>3.080972</altitude>
                        <altitudeMode>absolute</altitudeMode>
                        <heading>-24.099901</heading>
                        <tilt>112.491114</tilt>
                    </Camera>
                </gx:FlyTo>
                <gx:FlyTo>
                    <gx:flyToMode>smooth</gx:flyToMode>
                    <gx:duration>0.05</gx:duration>
                    <Camera>
                        <gx:horizFov>69.72645906888525</gx:horizFov>
                        <latitude>52.2254909160</latitude>
                        <longitude>6.6931962211</longitude>
                        <altitude>3.219069</altitude>
                        <altitudeMode>absolute</altitudeMode>
                        <heading>-28.296571</heading>
                        <tilt>114.740226</tilt>
                    </Camera>
                </gx:FlyTo>
                <gx:FlyTo>
                    <gx:flyToMode>smooth</gx:flyToMode>
                    <gx:duration>0.05</gx:duration>
                    <Camera>
                        <gx:horizFov>69.72645906888525</gx:horizFov>
                        <latitude>52.2254920117</latitude>
                        <longitude>6.6931966937</longitude>
                        <altitude>3.357166</altitude>
                        <altitudeMode>absolute</altitudeMode>
                        <heading>-32.493241</heading>
                        <tilt>116.989337</tilt>
                    </Camera>
                </gx:FlyTo>
                <gx:FlyTo>
                    <gx:flyToMode>smooth</gx:flyToMode>
                    <gx:duration>0.05</gx:duration>
                    <Camera>
                        <gx:horizFov>69.72645906888525</gx:horizFov>
                        <latitude>52.2254931075</latitude>
                        <longitude>6.6931971663</longitude>
                        <altitude>3.495263</altitude>
                        <altitudeMode>absolute</altitudeMode>
                        <heading>-36.689911</heading>
                        <tilt>119.238448</tilt>
                    </Camera>
                </gx:FlyTo>
                <gx:FlyTo>
                    <gx:flyToMode>smooth</gx:flyToMode>
                    <gx:duration>0.05</gx:duration>
                    <Camera>
                        <gx:horizFov>69.72645906888525</gx:horizFov>
                        <latitude>52.2254942033</latitude>
                        <longitude>6.6931976389</longitude>
                        <altitude>3.633361</altitude>
                        <altitudeMode>absolute</altitudeMode>
                        <heading>-40.886581</heading>
                        <tilt>121.487560</tilt>
                    </Camera>
                </gx:FlyTo>
                <gx:FlyTo>
                    <gx:flyToMode>smooth</gx:flyToMode>
                    <gx:duration>0.05</gx:duration>
                    <Camera>
                        <gx:horizFov>69.72645906888525</gx:horizFov>
                        <latitude>52.2254952991</latitude>
                        <longitude>6.6931981116</longitude>
                        <altitude>3.771458</altitude>
                        <altitudeMode>absolute</altitudeMode>
                        <heading>-45.083251</heading>
                        <tilt>123.736671</tilt>
                    </Camera>
                </gx:FlyTo>
                <gx:FlyTo>
                    <gx:flyToMode>smooth</gx:flyToMode>
                    <gx:duration>0.05</gx:duration>
                    <Camera>
                        <gx:horizFov>69.72645906888525</gx:horizFov>
                        <latitude>52.2254963949</latitude>
                        <longitude>6.6931985842</longitude>
                        <altitude>3.909555</altitude>
                        <altitudeMode>absolute</altitudeMode>
                        <heading>-49.279921</heading>
                        <tilt>125.985783</tilt>
                    </Camera>
                </gx:FlyTo>
                <gx:FlyTo>
                    <gx:flyToMode>smooth</gx:flyToMode>
                    <gx:duration>0.05</gx:duration>
                    <Camera>
                        <gx:horizFov>69.72645906888525</gx:horizFov>
                        <latitude>52.2254974906</latitude>
                        <longitude>6.6931990568</longitude>
                        <altitude>4.047652</altitude>
                        <altitudeMode>absolute</altitudeMode>
                        <heading>-53.476591</heading>
                        <tilt>128.234894</tilt>
                    </Camera>
                </gx:FlyTo>
                <gx:FlyTo>
                    <gx:flyToMode>smooth</gx:flyToMode>
                    <gx:duration>0.05</gx:duration>
                    <Camera>
                        <gx:horizFov>69.72645906888525</gx:horizFov>
                        <latitude>52.2254985864</latitude>
                        <longitude>6.6931995294</longitude>
                        <altitude>4.185749</altitude>
                        <altitudeMode>absolute</altitudeMode>
                        <heading>-57.673261</heading>
                        <tilt>130.484005</tilt>
                    </Camera>
                </gx:FlyTo>
                <gx:FlyTo>
                    <gx:flyToMode>smooth</gx:flyToMode>
                    <gx:duration>0.05</gx:duration>
                    <Camera>
                        <gx:horizFov>69.72645906888525</gx:horizFov>
                        <latitude>52.2254996822</latitude>
                        <longitude>6.6932000020</longitude>
                        <altitude>4.323847</altitude>
                        <altitudeMode>absolute</altitudeMode>
                        <heading>-61.869931</heading>
                        <tilt>132.733117</tilt>
                    </Camera>
                </gx:FlyTo>
                <gx:FlyTo>
                    <gx:flyToMode>smooth</gx:flyToMode>
                    <gx:duration>0.05</gx:duration>
                    <Camera>
                        <gx:horizFov>69.72645906888525</gx:horizFov>
                        <latitude>52.2255007780</latitude>
                        <longitude>6.6932004746</longitude>
                        <altitude>4.461944</altitude>
                        <altitudeMode>absolute</altitudeMode>
                        <heading>-66.066601</heading>
                        <tilt>134.982228</tilt>
                    </Camera>
                </gx:FlyTo>
                <gx:FlyTo>
                    <gx:flyToMode>smooth</gx:flyToMode>
                    <gx:duration>0.05</gx:duration>
                    <Camera>
                        <gx:horizFov>69.72645906888525</gx:horizFov>
                        <latitude>52.2255018738</latitude>
                        <longitude>6.6932009473</longitude>
                        <altitude>4.600041</altitude>
                        <altitudeMode>absolute</altitudeMode>
                        <heading>-70.263271</heading>
                        <tilt>137.231340</tilt>
                    </Camera>
                </gx:FlyTo>
                <gx:FlyTo>
                    <gx:flyToMode>smooth</gx:flyToMode>
                    <gx:duration>0.05</gx:duration>
                    <Camera>
                        <gx:horizFov>69.72645906888525</gx:horizFov>
                        <latitude>52.2255029695</latitude>
                        <longitude>6.6932014199</longitude>
                        <altitude>4.738138</altitude>
                        <altitudeMode>absolute</altitudeMode>
                        <heading>-74.459941</heading>
                        <tilt>139.480451</tilt>
                    </Camera>
                </gx:FlyTo>
                <gx:FlyTo>
                    <gx:flyToMode>smooth</gx:flyToMode>
                    <gx:duration>0.05</gx:duration>
                    <Camera>
                        <gx:horizFov>69.72645906888525</gx:horizFov>
                        <latitude>52.2255040653</latitude>
                        <longitude>6.6932018925</longitude>
                        <altitude>4.876235</altitude>
                        <altitudeMode>absolute</altitudeMode>
                        <heading>-78.656611</heading>
                        <tilt>141.729562</tilt>
                    </Camera>
                </gx:FlyTo>
                <gx:FlyTo>
                    <gx:flyToMode>smooth</gx:flyToMode>
                    <gx:duration>0.05</gx:duration>
                    <Camera>
                        <gx:horizFov>69.72645906888525</gx:horizFov>
                        <latitude>52.2255051611</latitude>
                        <longitude>6.6932023651</longitude>
                        <altitude>5.014333</altitude>
                        <altitudeMode>absolute</altitudeMode>
                        <heading>-82.853280</heading>
                        <tilt>143.978674</tilt>
                    </Camera>
                </gx:FlyTo>
                <gx:FlyTo>
                    <gx:flyToMode>smooth</gx:flyToMode>
                    <gx:duration>0.05</gx:duration>
                    <Camera>
                        <gx:horizFov>69.72645906888525</gx:horizFov>
                        <latitude>52.2255062569</latitude>
                        <longitude>6.6932028377</longitude>
                        <altitude>5.152430</altitude>
                        <altitudeMode>absolute</altitudeMode>
                        <heading>-87.049950</heading>
                        <tilt>146.227785</tilt>
                    </Camera>
                </gx:FlyTo>
                <gx:FlyTo>
                    <gx:flyToMode>smooth</gx:flyToMode>
                    <gx:duration>0.05</gx:duration>
                    <Camera>
                        <gx:horizFov>69.72645906888525</gx:horizFov>
                        <latitude>52.2255073527</latitude>
                        <longitude>6.6932033103</longitude>
                        <altitude>5.290527</altitude>
                        <altitudeMode>absolute</altitudeMode>
                        <heading>-91.246620</heading>
                        <tilt>148.476897</tilt>
                    </Camera>
                </gx:FlyTo>
                <gx:FlyTo>
                    <gx:flyToMode>smooth</gx:flyToMode>
                    <gx:duration>0.05</gx:duration>
                    <Camera>
                        <gx:horizFov>69.72645906888525</gx:horizFov>
                        <latitude>52.2255084484</latitude>
                        <longitude>6.6932037830</longitude>
                        <altitude>5.428624</altitude>
                        <altitudeMode>absolute</altitudeMode>
                        <heading>-95.443290</heading>
                        <tilt>150.726008</tilt>
                    </Camera>
                </gx:FlyTo>
                <gx:FlyTo>
                    <gx:flyToMode>smooth</gx:flyToMode>
                    <gx:duration>0.05</gx:duration>
                    <Camera>
                        <gx:horizFov>69.72645906888525</gx:horizFov>
                        <latitude>52.2255095442</latitude>
                        <longitude>6.6932042556</longitude>
                        <altitude>5.566721</altitude>
                        <altitudeMode>absolute</altitudeMode>
                        <heading>-99.639960</heading>
                        <tilt>152.975120</tilt>
                    </Camera>
                </gx:FlyTo>
                <gx:FlyTo>
                    <gx:flyToMode>smooth</gx:flyToMode>
                    <gx:duration>0.05</gx:duration>
                    <Camera>
                        <gx:horizFov>69.72645906888525</gx:horizFov>
                        <latitude>52.2255106400</latitude>
                        <longitude>6.6932047282</longitude>
                        <altitude>5.704818</altitude>
                        <altitudeMode>absolute</altitudeMode>
                        <heading>-103.836630</heading>
                        <tilt>155.224231</tilt>
                    </Camera>
                </gx:FlyTo>
                <gx:FlyTo>
                    <gx:flyToMode>smooth</gx:flyToMode>
                    <gx:duration>0.05</gx:duration>
                    <Camera>
                        <gx:horizFov>69.72645906888525</gx:horizFov>
                        <latitude>52.2255117358</latitude>
                        <longitude>6.6932052008</longitude>
                        <altitude>5.842916</altitude>
                        <altitudeMode>absolute</altitudeMode>
                        <heading>-108.033300</heading>
                        <tilt>157.473342</tilt>
                    </Camera>
                </gx:FlyTo>
                <gx:FlyTo>
                    <gx:flyToMode>smooth</gx:flyToMode>
                    <gx:duration>0.05</gx:duration>
                    <Camera>
                        <gx:horizFov>69.72645906888525</gx:horizFov>
                        <latitude>52.2255128316</latitude>
                        <longitude>6.6932056734</longitude>
                        <altitude>5.981013</altitude>
                        <altitudeMode>absolute</altitudeMode>
                        <heading>-112.229970</heading>
                        <tilt>159.722454</tilt>
                    </Camera>
                </gx:FlyTo>
                <gx:FlyTo>
                    <gx:flyToMode>smooth</gx:flyToMode>
                    <gx:duration>0.05</gx:duration>
                    <Camera>
                        <gx:horizFov>69.72645906888525</gx:horizFov>
                        <latitude>52.2255139273</latitude>
                        <longitude>6.6932061460</longitude>
                        <altitude>6.119110</altitude>
                        <altitudeMode>absolute</altitudeMode>
                        <heading>-116.426640</heading>
                        <tilt>161.971565</tilt>
                    </Camera>
                </gx:FlyTo>
                <gx:FlyTo>
                    <gx:flyToMode>smooth</gx:flyToMode>
                    <gx:duration>0.05</gx:duration>
                    <Camera>
                        <gx:horizFov>69.72645906888525</gx:horizFov>
                        <latitude>52.2255150231</latitude>
                        <longitude>6.6932066187</longitude>
                        <altitude>6.257207</altitude>
                        <altitudeMode>absolute</altitudeMode>
                        <heading>-120.623310</heading>
                        <tilt>164.220677</tilt>
                    </Camera>
                </gx:FlyTo>
                <gx:FlyTo>
                    <gx:flyToMode>smooth</gx:flyToMode>
                    <gx:duration>0.05</gx:duration>
                    <Camera>
                        <gx:horizFov>69.72645906888525</gx:horizFov>
                        <latitude>52.2255161189</latitude>
                        <longitude>6.6932070913</longitude>
                        <altitude>6.395304</altitude>
                        <altitudeMode>absolute</altitudeMode>
                        <heading>-124.819980</heading>
                        <tilt>166.469788</tilt>
                    </Camera>
                </gx:FlyTo>
                <gx:FlyTo>
                    <gx:flyToMode>smooth</gx:flyToMode>
                    <gx:duration>0.05</gx:duration>
                    <Camera>
                        <gx:horizFov>69.72645906888525</gx:horizFov>
                        <latitude>52.2255172147</latitude>
                        <longitude>6.6932075639</longitude>
                        <altitude>6.533402</altitude>
                        <altitudeMode>absolute</altitudeMode>
                        <heading>-129.016650</heading>
                        <tilt>168.718899</tilt>
                    </Camera>
                </gx:FlyTo>
                <gx:FlyTo>
                    <gx:flyToMode>smooth</gx:flyToMode>
                    <gx:duration>0.05</gx:duration>
                    <Camera>
                        <gx:horizFov>69.72645906888525</gx:horizFov>
                        <latitude>52.2255183105</latitude>
                        <longitude>6.6932080365</longitude>
                        <altitude>6.671499</altitude>
                        <altitudeMode>absolute</altitudeMode>
                        <heading>-133.213320</heading>
                        <tilt>170.968011</tilt>
                    </Camera>
                </gx:FlyTo>
                <gx:FlyTo>
                    <gx:flyToMode>smooth</gx:flyToMode>
                    <gx:duration>0.05</gx:duration>
                    <Camera>
                        <gx:horizFov>69.72645906888525</gx:horizFov>
                        <latitude>52.2255194062</latitude>
                        <longitude>6.6932085091</longitude>
                        <altitude>6.809596</altitude>
                        <altitudeMode>absolute</altitudeMode>
                        <heading>-137.409990</heading>
                        <tilt>173.217122</tilt>
                    </Camera>
                </gx:FlyTo>
                <gx:FlyTo>
                    <gx:flyToMode>smooth</gx:flyToMode>
                    <gx:duration>0.05</gx:duration>
                    <Camera>
                        <gx:horizFov>69.72645906888525</gx:horizFov>
                        <latitude>52.2255205020</latitude>
                        <longitude>6.6932089817</longitude>
                        <altitude>6.947693</altitude>
                        <altitudeMode>absolute</altitudeMode>
                        <heading>-141.606660</heading>
                        <tilt>175.466234</tilt>
                    </Camera>
                </gx:FlyTo>
                <gx:FlyTo>
                    <gx:flyToMode>smooth</gx:flyToMode>
                    <gx:duration>0.05</gx:duration>
                    <Camera>
                        <gx:horizFov>69.72645906888525</gx:horizFov>
                        <latitude>52.2255215978</latitude>
                        <longitude>6.6932094544</longitude>
                        <altitude>7.085790</altitude>
                        <altitudeMode>absolute</altitudeMode>
                        <heading>-145.803330</heading>
                        <tilt>177.715345</tilt>
                    </Camera>
                </gx:FlyTo>
                <gx:FlyTo>
                    <gx:flyToMode>smooth</gx:flyToMode>
                    <gx:duration>0.05</gx:duration>
                    <Camera>
                        <gx:horizFov>69.72645906888525</gx:horizFov>
                        <latitude>52.2255226936</latitude>
                        <longitude>6.6932099270</longitude>
                        <altitude>7.223888</altitude>
                        <altitudeMode>absolute</altitudeMode>
                        <heading>-150.000000</heading>
                        <tilt>179.964457</tilt>
                    </Camera>
                </gx:FlyTo>
                <gx:FlyTo>
                    <gx:flyToMode>bounce</gx:flyToMode>
                    <gx:duration>0.05</gx:duration>
                    <Camera>
                        <gx:horizFov>69.72645906888525</gx:horizFov>
                        <latitude>52.2255226936</latitude>
                        <longitude>6.6932099270</longitude>
                        <altitude>7.223888</altitude>
                        <altitudeMode>absolute</altitudeMode>
                        <heading>210.000000</heading>
                        <tilt>179.964457</tilt>
                    </Camera>
                </gx:FlyTo>
                <gx:FlyTo>
                    <gx:flyToMode>bounce</gx:flyToMode>
                    <gx:duration>0.5</gx:duration>
                    <Camera>
                        <gx:horizFov>69.72645906888525</gx:horizFov>
                        <latitude>52.2255226936</latitude>
                        <longitude>6.6932099270</longitude>
                        <altitude>7.223888</altitude>
                        <altitudeMode>absolute</altitudeMode>
                        <heading>210.000000</heading>
                        <tilt>179.964457</tilt>
                    </Camera>
                </gx:FlyTo>
                <gx:Wait>
                    <gx:duration>0.1</gx:duration>
                </gx:Wait>
                <gx:FlyTo>
                    <gx:flyToMode>bounce</gx:flyToMode>
                    <gx:duration>2.0</gx:duration>
                    <Camera>
                        <gx:horizFov>69.72645906888525</gx:horizFov>
                        <latitude>52.2255226936</latitude>
                        <longitude>6.6932099270</longitude>
                        <altitude>7.223888</altitude>
                        <altitudeMode>absolute</altitudeMode>
                        <heading>210.000000</heading>
                        <tilt>179.964457</tilt>
                    </Camera>
                </gx:FlyTo>
                <gx:Wait>
                    <gx:duration>0.1</gx:duration>
                </gx:Wait>
            </gx:Playlist>
        </gx:Tour>
    </Document>
</kml>
